{
  "features": [
    {
      "type": "Feature",
      "properties": {},
      "geometry": {
        "coordinates": [
          [
            80.04501,
            13.038753
          ],
          [
            80.045229,
            13.038741
          ]
        ],
        "type": "LineString"
      },
      "id": "03b51ee7359e304d50337e6c3711071f"
    },
    {
      "type": "Feature",
      "properties": {},
      "geometry": {
        "coordinates": [
          [
            80.045268,
            13.038364
          ],
          [
            80.045232,
            13.038363
          ]
        ],
        "type": "LineString"
      },
      "id": "09a44bc093d4dd0569277f5311949095"
    },
    {
      "type": "Feature",
      "properties": {},
      "geometry": {
        "coordinates": [
          [
            80.045584,
            13.039918
          ],
          [
            80.045773,
            13.039901
          ]
        ],
        "type": "LineString"
      },
      "id": "1c66c23330b06018b1d1d11253eee896"
    },
    {
      "type": "Feature",
      "properties": {},
      "geometry": {
        "coordinates": [
          [
            80.045061,
            13.037821
          ],
          [
            80.045096,
            13.037816
          ]
        ],
        "type": "LineString"
      },
      "id": "2725479a10d7856642b47e0b2dc47dee"
    },
    {
      "type": "Feature",
      "properties": {},
      "geometry": {
        "coordinates": [
          [
            80.044532,
            13.038822
          ],
          [
            80.044542,
            13.038944
          ],
          [
            80.044837,
            13.03891
          ]
        ],
        "type": "LineString"
      },
      "id": "2c9775f37bebf19c945c6af62f9073d4"
    },
    {
      "type": "Feature",
      "properties": {},
      "geometry": {
        "coordinates": [
          [
            80.044922,
            13.038488
          ],
          [
            80.045231,
            13.038491
          ]
        ],
        "type": "LineString"
      },
      "id": "3052b246a432ee0a4e85995ae9f3f997"
    },
    {
      "type": "Feature",
      "properties": {},
      "geometry": {
        "coordinates": [
          [
            80.045232,
            13.039432
          ],
          [
            80.045423,
            13.039429
          ],
          [
            80.045478,
            13.039446
          ],
          [
            80.045513,
            13.039485
          ],
          [
            80.045544,
            13.039586
          ],
          [
            80.045568,
            13.039813
          ],
          [
            80.045569,
            13.039813
          ]
        ],
        "type": "LineString"
      },
      "id": "390938a8de60d6d51d22089664673c7f"
    },
    {
      "type": "Feature",
      "properties": {},
      "geometry": {
        "coordinates": [
          [
            80.045073,
            13.038008
          ],
          [
            80.045099,
            13.037795
          ]
        ],
        "type": "LineString"
      },
      "id": "4094429704a8b01fac79f5d38d2d4fae"
    },
    {
      "type": "Feature",
      "properties": {},
      "geometry": {
        "coordinates": [
          [
            80.045231,
            13.039485
          ],
          [
            80.044881,
            13.039504
          ]
        ],
        "type": "LineString"
      },
      "id": "43530d7eb5cb7ac544cbb4f6ab32ff5d"
    },
    {
      "type": "Feature",
      "properties": {},
      "geometry": {
        "coordinates": [
          [
            80.04547,
            13.039191
          ],
          [
            80.045468,
            13.039118
          ],
          [
            80.045461,
            13.039097
          ],
          [
            80.045438,
            13.039073
          ],
          [
            80.045402,
            13.039051
          ]
        ],
        "type": "LineString"
      },
      "id": "46993684e6d696ff60e77588859a98a2"
    },
    {
      "type": "Feature",
      "properties": {},
      "geometry": {
        "coordinates": [
          [
            80.044779,
            13.039802
          ],
          [
            80.04523,
            13.039756
          ]
        ],
        "type": "LineString"
      },
      "id": "46b4720065a13fc4c3f0b013d932affa"
    },
    {
      "type": "Feature",
      "properties": {},
      "geometry": {
        "coordinates": [
          [
            80.045403,
            13.039121
          ],
          [
            80.045402,
            13.039053
          ],
          [
            80.045405,
            13.039012
          ],
          [
            80.045406,
            13.038964
          ],
          [
            80.045408,
            13.038909
          ],
          [
            80.04541,
            13.038856
          ],
          [
            80.045416,
            13.038833
          ],
          [
            80.045407,
            13.038816
          ],
          [
            80.045381,
            13.038805
          ],
          [
            80.045349,
            13.038797
          ],
          [
            80.045284,
            13.038781
          ],
          [
            80.045235,
            13.038773
          ]
        ],
        "type": "LineString"
      },
      "id": "52952b7bc10dfee4bd58dd04d516e97b"
    },
    {
      "type": "Feature",
      "properties": {},
      "geometry": {
        "coordinates": [
          [
            80.045569,
            13.039779
          ],
          [
            80.045749,
            13.039772
          ]
        ],
        "type": "LineString"
      },
      "id": "61cf5ea160189d1557080e3d234275ac"
    },
    {
      "type": "Feature",
      "properties": {},
      "geometry": {
        "coordinates": [
          [
            80.045236,
            13.038246
          ],
          [
            80.044994,
            13.038226
          ],
          [
            80.044832,
            13.038211
          ],
          [
            80.044665,
            13.038172
          ],
          [
            80.044605,
            13.038145
          ],
          [
            80.044588,
            13.03811
          ],
          [
            80.044578,
            13.038051
          ],
          [
            80.04457,
            13.037967
          ],
          [
            80.044563,
            13.037896
          ],
          [
            80.044559,
            13.037853
          ],
          [
            80.044575,
            13.037833
          ],
          [
            80.04463,
            13.037802
          ],
          [
            80.044703,
            13.037766
          ],
          [
            80.044762,
            13.037741
          ],
          [
            80.044841,
            13.037708
          ],
          [
            80.044893,
            13.037702
          ],
          [
            80.044957,
            13.0377
          ],
          [
            80.045015,
            13.037692
          ],
          [
            80.045077,
            13.037683
          ],
          [
            80.045101,
            13.037684
          ],
          [
            80.045113,
            13.037695
          ],
          [
            80.045114,
            13.037732
          ],
          [
            80.04511,
            13.037762
          ],
          [
            80.0451,
            13.037797
          ],
          [
            80.045127,
            13.037803
          ],
          [
            80.045237,
            13.037805
          ]
        ],
        "type": "LineString"
      },
      "id": "6799e8cf6688f69e9d91b5bb56848ff7"
    },
    {
      "type": "Feature",
      "properties": {},
      "geometry": {
        "coordinates": [
          [
            80.045136,
            13.037608
          ],
          [
            80.045232,
            13.037616
          ]
        ],
        "type": "LineString"
      },
      "id": "8aa4406760ac361f3844a9003239ef66"
    },
    {
      "type": "Feature",
      "properties": {},
      "geometry": {
        "coordinates": [
          [
            80.045409,
            13.039181
          ],
          [
            80.045589,
            13.039204
          ]
        ],
        "type": "LineString"
      },
      "id": "9528b551f47898d1bc7119c1237e4b57"
    },
    {
      "type": "Feature",
      "properties": {},
      "geometry": {
        "coordinates": [
          [
            80.043771,
            13.040971
          ],
          [
            80.044246,
            13.040962
          ],
          [
            80.044316,
            13.041118
          ],
          [
            80.044356,
            13.041139
          ],
          [
            80.044448,
            13.041139
          ],
          [
            80.044914,
            13.041066
          ],
          [
            80.04504,
            13.041024
          ],
          [
            80.045158,
            13.040947
          ],
          [
            80.045329,
            13.040751
          ],
          [
            80.045401,
            13.040631
          ],
          [
            80.045439,
            13.040557
          ],
          [
            80.045561,
            13.040499
          ],
          [
            80.045613,
            13.040443
          ],
          [
            80.045617,
            13.040345
          ],
          [
            80.04561,
            13.040259
          ],
          [
            80.045603,
            13.040133
          ],
          [
            80.045568,
            13.03981
          ]
        ],
        "type": "LineString"
      },
      "id": "995e28d1ebf5e013c6692b4227a5f66e"
    },
    {
      "type": "Feature",
      "properties": {},
      "geometry": {
        "coordinates": [
          [
            80.045514,
            13.039494
          ],
          [
            80.045639,
            13.039474
          ]
        ],
        "type": "LineString"
      },
      "id": "a35e3e6d8d5fa39731d041148717a7d7"
    },
    {
      "type": "Feature",
      "properties": {},
      "geometry": {
        "coordinates": [
          [
            80.045433,
            13.039434
          ],
          [
            80.045403,
            13.03912
          ]
        ],
        "type": "LineString"
      },
      "id": "a5913f0b81796a46574791b8f7b41b8b"
    },
    {
      "type": "Feature",
      "properties": {},
      "geometry": {
        "coordinates": [
          [
            80.045172,
            13.040501
          ],
          [
            80.045124,
            13.040499
          ],
          [
            80.045099,
            13.040451
          ],
          [
            80.045038,
            13.039777
          ]
        ],
        "type": "LineString"
      },
      "id": "a6fb81e0bc24641549c79498e49e341a"
    },
    {
      "type": "Feature",
      "properties": {},
      "geometry": {
        "coordinates": [
          [
            80.045048,
            13.039243
          ],
          [
            80.045231,
            13.039228
          ]
        ],
        "type": "LineString"
      },
      "id": "b517e04f1875a3a5c8cd5931b15b4d4c"
    },
    {
      "type": "Feature",
      "properties": {},
      "geometry": {
        "coordinates": [
          [
            80.044644,
            13.038811
          ],
          [
            80.04466,
            13.038931
          ]
        ],
        "type": "LineString"
      },
      "id": "b66e136ec2276d81dcc49a1f94d5b504"
    },
    {
      "type": "Feature",
      "properties": {},
      "geometry": {
        "coordinates": [
          [
            80.045389,
            13.04009
          ],
          [
            80.045353,
            13.039641
          ],
          [
            80.045347,
            13.039526
          ],
          [
            80.04529,
            13.039493
          ],
          [
            80.045232,
            13.03949
          ]
        ],
        "type": "LineString"
      },
      "id": "ba43c0c69ace957deb720e6c9da90e53"
    },
    {
      "type": "Feature",
      "properties": {},
      "geometry": {
        "coordinates": [
          [
            80.044821,
            13.04012
          ],
          [
            80.04486,
            13.04007
          ],
          [
            80.044868,
            13.040009
          ],
          [
            80.044878,
            13.039955
          ],
          [
            80.04489,
            13.039898
          ],
          [
            80.044921,
            13.039854
          ],
          [
            80.044951,
            13.03983
          ],
          [
            80.044988,
            13.0398
          ],
          [
            80.044998,
            13.039779
          ]
        ],
        "type": "LineString"
      },
      "id": "bd49f0d6730bc5389940ad78373716a5"
    },
    {
      "type": "Feature",
      "properties": {},
      "geometry": {
        "coordinates": [
          [
            80.044881,
            13.039791
          ],
          [
            80.044879,
            13.039336
          ],
          [
            80.044869,
            13.039151
          ],
          [
            80.044834,
            13.038881
          ],
          [
            80.044799,
            13.038652
          ],
          [
            80.044789,
            13.03857
          ],
          [
            80.044662,
            13.038568
          ]
        ],
        "type": "LineString"
      },
      "id": "bd964792191a77b8d4c188fa87b46835"
    },
    {
      "type": "Feature",
      "properties": {},
      "geometry": {
        "coordinates": [
          [
            80.044816,
            13.039158
          ],
          [
            80.044867,
            13.039151
          ]
        ],
        "type": "LineString"
      },
      "id": "c8aff445443305f42b4f5d4212c3df9d"
    },
    {
      "type": "Feature",
      "properties": {},
      "geometry": {
        "coordinates": [
          [
            80.045014,
            13.038935
          ],
          [
            80.045231,
            13.038913
          ]
        ],
        "type": "LineString"
      },
      "id": "cd756b8016bc3b3e1c37bee861344595"
    },
    {
      "type": "Feature",
      "properties": {},
      "geometry": {
        "coordinates": [
          [
            80.045167,
            13.037488
          ],
          [
            80.045188,
            13.037531
          ],
          [
            80.045208,
            13.037566
          ],
          [
            80.045229,
            13.037607
          ],
          [
            80.045231,
            13.037672
          ],
          [
            80.045234,
            13.037753
          ],
          [
            80.045232,
            13.038006
          ],
          [
            80.045232,
            13.03826
          ],
          [
            80.045231,
            13.038787
          ],
          [
            80.045232,
            13.039272
          ],
          [
            80.045233,
            13.039594
          ],
          [
            80.04523,
            13.039789
          ],
          [
            80.045226,
            13.039999
          ],
          [
            80.045234,
            13.040197
          ],
          [
            80.045241,
            13.040395
          ]
        ],
        "type": "LineString"
      },
      "id": "d4e24a717f5beab999e3e458804b6bfa"
    },
    {
      "type": "Feature",
      "properties": {},
      "geometry": {
        "coordinates": [
          [
            80.045231,
            13.037707
          ],
          [
            80.045329,
            13.037709
          ],
          [
            80.04534,
            13.037834
          ]
        ],
        "type": "LineString"
      },
      "id": "ed923825a11909d3f818b0d735bdbee0"
    },
    {
      "type": "Feature",
      "properties": {},
      "geometry": {
        "coordinates": [
          [
            80.045236,
            13.038008
          ],
          [
            80.045072,
            13.038008
          ],
          [
            80.045069,
            13.038231
          ]
        ],
        "type": "LineString"
      },
      "id": "f338636edd14337ef69a56cc04a596aa"
    }
  ],
  "type": "FeatureCollection"
}